{"type": "FeatureCollection", "features": [ {"type": "Feature", "properties": {"norad_id": 32150, "name": "FENGYUN 1C DEB", "group": "fengyun-1c-debris", "lat": -1.2868072430992639, "lon": 12.841657628750502, "alt_km": 632.7885650824046, "timestamp": "2025-12-15T11:38:37.439104+00:00", "meta": {"OBJECT_NAME": "FENGYUN 1C DEB", "OBJECT_ID": "1999-025CSU", "EPOCH": "2025-12-12T19:31:59.214720", "MEAN_MOTION": 14.60669325, "ECCENTRICITY": 0.017193, "INCLINATION": 99.1914, "RA_OF_ASC_NODE": 9.67, "ARG_OF_PERICENTER": 67.4732, "MEAN_ANOMALY": 294.4563, "EPHEMERIS_TYPE": 0, "CLASSIFICATION_TYPE": "U", "NORAD_CAT_ID": 32150, "ELEMENT_SET_NO": 999, "REV_AT_EPOCH": 97707, "BSTAR": 0.00022068603, "MEAN_MOTION_DOT": 1.257e-05, "MEAN_MOTION_DDOT": 0}, "tle": {"line1": "1 32150U 99025CSU 25346.81387980  .00001257  00000+0  22069-3 0  9996", "line2": "2 32150  99.1914   9.6700 0171930  67.4732 294.4563 14.60669325977073"}}, "geometry": {"type": "Point", "coordinates": [12.841657628750502, -1.2868072430992639]}}, {"type": "Feature", "properties": {"norad_id": 32152, "name": "FENGYUN 1C DEB", "group": "fengyun-1c-debris", "lat": 28.529413341207313, "lon": -24.425312830848945, "alt_km": 672.9843573656854, "timestamp": "2025-12-15T11:38:37.439114+00:00", "meta": {"OBJECT_NAME": "FENGYUN 1C DEB", "OBJECT_ID": "1999-025CSW", "EPOCH": "2025-12-13T04:33:07.876800", "MEAN_MOTION": 14.56753621, "ECCENTRICITY": 0.00550486, "INCLINATION": 98.7606, "RA_OF_ASC_NODE": 148.3543, "ARG_OF_PERICENTER": 199.8134, "MEAN_ANOMALY": 160.0925, "EPHEMERIS_TYPE": 0, "CLASSIFICATION_TYPE": "U", "NORAD_CAT_ID": 32152, "ELEMENT_SET_NO": 999, "REV_AT_EPOCH": 62619, "BSTAR": 0.0034882492, "MEAN_MOTION_DOT": 0.00015905, "MEAN_MOTION_DDOT": 0}, "tle": {"line1": "1 32152U 99025CSW 25347.18967450  .00015905  00000+0  34882-2 0  9995", "line2": "2 32152  98.7606 148.3543 0055048 199.8134 160.0925 14.56753621626193"}}, "geometry": {"type": "Point", "coordinates": [-24.425312830848945, 28.529413341207313]}}, {"type": "Feature", "properties": {"norad_id": 32153, "name": "FENGYUN 1C DEB", "group": "fengyun-1c-debris", "lat": 40.71550315434078, "lon": -175.10925011217697, "alt_km": 872.2425372527978, "timestamp": "2025-12-15T11:38:37.439125+00:00", "meta": {"OBJECT_NAME": "FENGYUN 1C DEB", "OBJECT_ID": "1999-025CSX", "EPOCH": "2025-12-14T07:15:59.779008", "MEAN_MOTION": 14.48726079, "ECCENTRICITY": 0.02072716, "INCLINATION": 98.7695, "RA_OF_ASC_NODE": 191.2964, "ARG_OF_PERICENTER": 216.5154, "MEAN_ANOMALY": 142.1755, "EPHEMERIS_TYPE": 0, "CLASSIFICATION_TYPE": "U", "NORAD_CAT_ID": 32153, "ELEMENT_SET_NO": 999, "REV_AT_EPOCH": 97246, "BSTAR": 0.00040155107, "MEAN_MOTION_DOT": 1.929e-05, "MEAN_MOTION_DDOT": 0}, "tle": {"line1": "1 32153U 99025CSX 25348.30277522  .00001929  00000+0  40155-3 0  9997", "line2": "2 32153  98.7695 191.2964 0207271 216.5154 142.1755 14.48726079972466"}}, "geometry": {"type": "Point", "coordinates": [-175.10925011217697, 40.71550315434078]}}, {"type": "Feature", "properties": {"norad_id": 32155, "name": "FENGYUN 1C DEB", "group": "fengyun-1c-debris", "lat": -46.65065465416596, "lon": 89.58011040702169, "alt_km": 739.3246279403365, "timestamp": "2025-12-15T11:38:37.439134+00:00", "meta": {"OBJECT_NAME": "FENGYUN 1C DEB", "OBJECT_ID": "1999-025CSZ", "EPOCH": "2025-12-14T12:47:50.436096", "MEAN_MOTION": 14.32956999, "ECCENTRICITY": 0.00690143, "INCLINATION": 98.952, "RA_OF_ASC_NODE": 278.2092, "ARG_OF_PERICENTER": 234.5934, "MEAN_ANOMALY": 124.879, "EPHEMERIS_TYPE": 0, "CLASSIFICATION_TYPE": "U", "NORAD_CAT_ID": 32155, "ELEMENT_SET_NO": 999, "REV_AT_EPOCH": 70248, "BSTAR": 0.00052873215, "MEAN_MOTION_DOT": 1.437e-05, "MEAN_MOTION_DDOT": 0}, "tle": {"line1": "1 32155U 99025CSZ 25348.53322264  .00001437  00000+0  52873-3 0  9992", "line2": "2 32155  98.9520 278.2092 0069014 234.5934 124.8790 14.32956999702480"}}, "geometry": {"type": "Point", "coordinates": [89.58011040702169, -46.65065465416596]}}, {"type": "Feature", "properties": {"norad_id": 32156, "name": "FENGYUN 1C DEB", "group": "fengyun-1c-debris", "lat": -44.56366726558432, "lon": -30.072564750535594, "alt_km": 850.5972847559897, "timestamp": "2025-12-15T11:38:37.439145+00:00", "meta": {"OBJECT_NAME": "FENGYUN 1C DEB", "OBJECT_ID": "1999-025CTA", "EPOCH": "2025-12-14T17:49:44.956416", "MEAN_MOTION": 14.31954825, "ECCENTRICITY": 0.00822399, "INCLINATION": 99.3543, "RA_OF_ASC_NODE": 158.4708, "ARG_OF_PERICENTER": 51.7421, "MEAN_ANOMALY": 309.1124, "EPHEMERIS_TYPE": 0, "CLASSIFICATION_TYPE": "U", "NORAD_CAT_ID": 32156, "ELEMENT_SET_NO": 999, "REV_AT_EPOCH": 64849, "BSTAR": 0.00034958523, "MEAN_MOTION_DOT": 9.23e-06, "MEAN_MOTION_DDOT": 0}, "tle": {"line1": "1 32156U 99025CTA 25348.74288144  .00000923  00000+0  34959-3 0  9998", "line2": "2 32156  99.3543 158.4708 0082239  51.7421 309.1124 14.31954825648492"}}, "geometry": {"type": "Point", "coordinates": [-30.072564750535594, -44.56366726558432]}}, {"type": "Feature", "properties": {"norad_id": 32160, "name": "FENGYUN 1C DEB", "group": "fengyun-1c-debris", "lat": 80.7832821640406, "lon": 72.24698617023202, "alt_km": 765.4706864429436, "timestamp": "2025-12-15T11:38:37.439155+00:00", "meta": {"OBJECT_NAME": "FENGYUN 1C DEB", "OBJECT_ID": "1999-025CTE", "EPOCH": "2025-12-12T21:26:10.613760", "MEAN_MOTION": 14.37568487, "ECCENTRICITY": 0.00820527, "INCLINATION": 98.8811, "RA_OF_ASC_NODE": 144.0659, "ARG_OF_PERICENTER": 358.4462, "MEAN_ANOMALY": 1.6457, "EPHEMERIS_TYPE": 0, "CLASSIFICATION_TYPE": "U", "NORAD_CAT_ID": 32160, "ELEMENT_SET_NO": 999, "REV_AT_EPOCH": 95889, "BSTAR": 0.00064978761, "MEAN_MOTION_DOT": 1.977e-05, "MEAN_MOTION_DDOT": 0}, "tle": {"line1": "1 32160U 99025CTE 25346.89317840  .00001977  00000+0  64979-3 0  9998", "line2": "2 32160  98.8811 144.0659 0082052 358.4462   1.6457 14.37568487958892"}}, "geometry": {"type": "Point", "coordinates": [72.24698617023202, 80.7832821640406]}}, {"type": "Feature", "properties": {"norad_id": 32161, "name": "FENGYUN 1C DEB", "group": "fengyun-1c-debris", "lat": -70.30763160714966, "lon": -111.71034442388981, "alt_km": 802.0119316099717, "timestamp": "2025-12-15T11:38:37.439165+00:00", "meta": {"OBJECT_NAME": "FENGYUN 1C DEB", "OBJECT_ID": "1999-025CTF", "EPOCH": "2025-12-08T12:16:43.883328", "MEAN_MOTION": 14.01862269, "ECCENTRICITY": 0.01354176, "INCLINATION": 98.8305, "RA_OF_ASC_NODE": 87.2791, "ARG_OF_PERICENTER": 291.8401, "MEAN_ANOMALY": 66.8408, "EPHEMERIS_TYPE": 0, "CLASSIFICATION_TYPE": "U", "NORAD_CAT_ID": 32161, "ELEMENT_SET_NO": 999, "REV_AT_EPOCH": 63370, "BSTAR": 0.00067399448, "MEAN_MOTION_DOT": 1.067e-05, "MEAN_MOTION_DDOT": 0}, "tle": {"line1": "1 32161U 99025CTF 25342.51161902  .00001067  00000+0  67399-3 0  9999", "line2": "2 32161  98.8305  87.2791 0135417 291.8401  66.8408 14.01862269633708"}}, "geometry": {"type": "Point", "coordinates": [-111.71034442388981, -70.30763160714966]}}, {"type": "Feature", "properties": {"norad_id": 32162, "name": "FENGYUN 1C DEB", "group": "fengyun-1c-debris", "lat": 35.29086255850484, "lon": -138.1955213156409, "alt_km": 651.8579994329139, "timestamp": "2025-12-15T11:38:37.439175+00:00", "meta": {"OBJECT_NAME": "FENGYUN 1C DEB", "OBJECT_ID": "1999-025CTG", "EPOCH": "2025-12-14T02:08:16.686528", "MEAN_MOTION": 14.62063057, "ECCENTRICITY": 0.00479785, "INCLINATION": 99.4633, "RA_OF_ASC_NODE": 33.4277, "ARG_OF_PERICENTER": 166.6592, "MEAN_ANOMALY": 193.5887, "EPHEMERIS_TYPE": 0, "CLASSIFICATION_TYPE": "U", "NORAD_CAT_ID": 32162, "ELEMENT_SET_NO": 999, "REV_AT_EPOCH": 94938, "BSTAR": 0.0015360168, "MEAN_MOTION_DOT": 7.786e-05, "MEAN_MOTION_DDOT": 0}, "tle": {"line1": "1 32162U 99025CTG 25348.08908202  .00007786  00000+0  15360-2 0  9994", "line2": "2 32162  99.4633  33.4277 0047978 166.6592 193.5887 14.62063057949384"}}, "geometry": {"type": "Point", "coordinates": [-138.1955213156409, 35.29086255850484]}}, {"type": "Feature", "properties": {"norad_id": 32163, "name": "FENGYUN 1C DEB", "group": "fengyun-1c-debris", "lat": 17.466532906651118, "lon": 178.6805121803816, "alt_km": 774.6613751035075, "timestamp": "2025-12-15T11:38:37.439185+00:00", "meta": {"OBJECT_NAME": "FENGYUN 1C DEB", "OBJECT_ID": "1999-025CTH", "EPOCH": "2025-12-12T06:21:19.094976", "MEAN_MOTION": 14.43120772, "ECCENTRICITY": 0.00516687, "INCLINATION": 99.5465, "RA_OF_ASC_NODE": 352.0409, "ARG_OF_PERICENTER": 36.0432, "MEAN_ANOMALY": 324.422, "EPHEMERIS_TYPE": 0, "CLASSIFICATION_TYPE": "U", "NORAD_CAT_ID": 32163, "ELEMENT_SET_NO": 999, "REV_AT_EPOCH": 60969, "BSTAR": 0.0015195332, "MEAN_MOTION_DOT": 5.133e-05, "MEAN_MOTION_DDOT": 0}, "tle": {"line1": "1 32163U 99025CTH 25346.26480434  .00005133  00000+0  15195-2 0  9995", "line2": "2 32163  99.5465 352.0409 0051668  36.0432 324.4220 14.43120772609690"}}, "geometry": {"type": "Point", "coordinates": [178.6805121803816, 17.466532906651118]}}, {"type": "Feature", "properties": {"norad_id": 32167, "name": "FENGYUN 1C DEB", "group": "fengyun-1c-debris", "lat": 60.731363055809176, "lon": -31.487180001350428, "alt_km": 666.6113197192426, "timestamp": "2025-12-15T11:38:37.439194+00:00", "meta": {"OBJECT_NAME": "FENGYUN 1C DEB", "OBJECT_ID": "1999-025CTM", "EPOCH": "2025-12-10T05:30:19.403136", "MEAN_MOTION": 14.30972124, "ECCENTRICITY": 0.0165377, "INCLINATION": 98.4694, "RA_OF_ASC_NODE": 338.8066, "ARG_OF_PERICENTER": 65.1476, "MEAN_ANOMALY": 296.6802, "EPHEMERIS_TYPE": 0, "CLASSIFICATION_TYPE": "U", "NORAD_CAT_ID": 32167, "ELEMENT_SET_NO": 999, "REV_AT_EPOCH": 62639, "BSTAR": 0.00054816, "MEAN_MOTION_DOT": 1.629e-05, "MEAN_MOTION_DDOT": 0}, "tle": {"line1": "1 32167U 99025CTM 25344.22939124  .00001629  00000+0  54816-3 0  9998", "line2": "2 32167  98.4694 338.8066 0165377  65.1476 296.6802 14.30972124626395"}}, "geometry": {"type": "Point", "coordinates": [-31.487180001350428, 60.731363055809176]}}]}